
# Worst residual: 14.98 km
# MJD 58201.000000 (2018 Mar 24  0:00)
2007-004G = NORAD 30799 = Themis booster
1 30799U 07004G   18083.49919926  .00000000  00000-0  00000-0 0  3543
2 30799 009.5980 101.0093 8550136 259.1098 327.7316 00.79494310    03

# Worst residual: 19.94 km
# MJD 58202.000000 (2018 Mar 25  0:00)
2007-004G = NORAD 30799 = Themis booster
1 30799U 07004G   18084.49919926  .00000000  00000-0  00000-0 0  3544
2 30799 009.5992 100.8754 8550003 259.3510 253.8143 00.79479573    02

# Worst residual: 11.06 km
# MJD 58203.000000 (2018 Mar 26  0:00)
2007-004G = NORAD 30799 = Themis booster
1 30799U 07004G   18085.49919926  .00000000  00000-0  00000-0 0  3545
2 30799 009.6013 100.6936 8552177 259.6369 179.9068 00.79490865    07

# Worst residual: 18.96 km
# MJD 58204.000000 (2018 Mar 27  0:00)
2007-004G = NORAD 30799 = Themis booster
1 30799U 07004G   18086.49919926  .00000000  00000-0  00000-0 0  3546
2 30799 009.6042 100.5577 8550579 259.8831 105.9962 00.79473799    08

# Worst residual: 16.36 km
# MJD 58205.000000 (2018 Mar 28  0:00)
2007-004G = NORAD 30799 = Themis booster
1 30799U 07004G   18087.49919926  .00000000  00000-0  00000-0 0  3547
2 30799 009.6072 100.4479 8552173 260.1022 032.0772 00.79498524    02

# Worst residual: 16.69 km
# MJD 58206.000000 (2018 Mar 29  0:00)
2007-004G = NORAD 30799 = Themis booster
1 30799U 07004G   18088.49919926  .00000000  00000-0  00000-0 0  3548
2 30799 009.6089 100.3206 8553751 260.3435 318.1049 00.79488823    06

# Worst residual: 14.82 km
# MJD 58207.000000 (2018 Mar 30  0:00)
2007-004G = NORAD 30799 = Themis booster
1 30799U 07004G   18089.49919926  .00000000  00000-0  00000-0 0  3549
2 30799 009.6088 100.1763 8554772 260.6073 244.1446 00.79471804    06

# Worst residual: 12.89 km
# MJD 58208.000000 (2018 Mar 31  0:00)
2007-004G = NORAD 30799 = Themis booster
1 30799U 07004G   18090.49919926  .00000000  00000-0  00000-0 0  3541
2 30799 009.6069 099.9445 8555439 260.9574 170.2074 00.79477379    06

# Worst residual: 14.61 km
# MJD 58209.000000 (2018 Apr  1  0:00)
2007-004G = NORAD 30799 = Themis booster
1 30799U 07004G   18091.49919926  .00000000  00000-0  00000-0 0  3542
2 30799 009.6083 099.7629 8553707 261.2570 096.2634 00.79482741    08

# Worst residual: 15.65 km
# MJD 58210.000000 (2018 Apr  2  0:00)
2007-004G = NORAD 30799 = Themis booster
1 30799U 07004G   18092.49919926  .00000000  00000-0  00000-0 0  3543
2 30799 009.6091 099.5434 8552487 261.5813 022.3348 00.79503787    02

# Worst residual: 15.43 km
# MJD 58211.000000 (2018 Apr  3  0:00)
2007-004G = NORAD 30799 = Themis booster
1 30799U 07004G   18093.49919926  .00000000  00000-0  00000-0 0  3544
2 30799 009.6086 099.3541 8551873 261.8767 308.4030 00.79483891    01

# Worst residual: 19.46 km
# MJD 58212.000000 (2018 Apr  4  0:00)
2007-004G = NORAD 30799 = Themis booster
1 30799U 07004G   18094.49919926  .00000000  00000-0  00000-0 0  3545
2 30799 009.6101 099.2270 8553281 262.1114 234.5068 00.79489131    05

# Worst residual: 18.64 km
# MJD 58213.000000 (2018 Apr  5  0:00)
2007-004G = NORAD 30799 = Themis booster
1 30799U 07004G   18095.49919926  .00000000  00000-0  00000-0 0  3546
2 30799 009.6111 099.0320 8553485 262.4059 160.6038 00.79490811    00

# Worst residual: 13.62 km
# MJD 58214.000000 (2018 Apr  6  0:00)
2007-004G = NORAD 30799 = Themis booster
1 30799U 07004G   18096.49919926  .00000000  00000-0  00000-0 0  3547
2 30799 009.6134 098.9156 8552180 262.6319 086.7009 00.79486557    00

# Worst residual: 15.17 km
# MJD 58215.000000 (2018 Apr  7  0:00)
2007-004G = NORAD 30799 = Themis booster
1 30799U 07004G   18097.49919926  .00000000  00000-0  00000-0 0  3548
2 30799 009.6151 098.7805 8552111 262.8733 012.7805 00.79509690    01

# Worst residual: 14.01 km
# MJD 58216.000000 (2018 Apr  8  0:00)
2007-004G = NORAD 30799 = Themis booster
1 30799U 07004G   18098.49919926  .00000000  00000-0  00000-0 0  3549
2 30799 009.6156 098.6383 8552749 263.1210 298.8528 00.79485157    07

# Worst residual: 16.76 km
# MJD 58217.000000 (2018 Apr  9  0:00)
2007-004G = NORAD 30799 = Themis booster
1 30799U 07004G   18099.49919926  .00000000  00000-0  00000-0 0  3540
2 30799 009.6160 098.4982 8554276 263.3739 224.9389 00.79487437    08

# Worst residual: 18.33 km
# MJD 58218.000000 (2018 Apr 10  0:00)
2007-004G = NORAD 30799 = Themis booster
1 30799U 07004G   18100.49919926  .00000000  00000-0  00000-0 0  3543
2 30799 009.6157 098.2994 8553888 263.6783 151.0287 00.79485157    09

# Worst residual: 16.21 km
# MJD 58219.000000 (2018 Apr 11  0:00)
2007-004G = NORAD 30799 = Themis booster
1 30799U 07004G   18101.49919926  .00000000  00000-0  00000-0 0  3544
2 30799 009.6178 098.1702 8552540 263.9177 077.1224 00.79486959    02

# Worst residual: 15.58 km
# MJD 58220.000000 (2018 Apr 12  0:00)
2007-004G = NORAD 30799 = Themis booster
1 30799U 07004G   18102.49919926  .00000000  00000-0  00000-0 0  3545
2 30799 009.6189 098.0047 8552285 264.1897 003.1957 00.79498934    01

# Worst residual: 14.86 km
# MJD 58221.000000 (2018 Apr 13  0:00)
2007-004G = NORAD 30799 = Themis booster
1 30799U 07004G   18103.49919926  .00000000  00000-0  00000-0 0  3546
2 30799 009.6192 097.8592 8552023 264.4372 289.2895 00.79477832    00

# Worst residual: 12.90 km
# MJD 58222.000000 (2018 Apr 14  0:00)
2007-004G = NORAD 30799 = Themis booster
1 30799U 07004G   18104.49919926  .00000000  00000-0  00000-0 0  3547
2 30799 009.6200 097.7200 8553718 264.6870 215.3842 00.79486580    04

# Worst residual: 18.23 km
# MJD 58223.000000 (2018 Apr 15  0:00)
2007-004G = NORAD 30799 = Themis booster
1 30799U 07004G   18105.49919926  .00000000  00000-0  00000-0 0  3548
2 30799 009.6200 097.5390 8552570 264.9725 141.4785 00.79479252    02

# Worst residual: 16.78 km
# MJD 58224.000000 (2018 Apr 16  0:00)
2007-004G = NORAD 30799 = Themis booster
1 30799U 07004G   18106.49919926  .00000000  00000-0  00000-0 0  3549
2 30799 009.6221 097.4424 8552298 265.1793 067.5643 00.79487843    03

# Worst residual: 15.47 km
# MJD 58225.000000 (2018 Apr 17  0:00)
2007-004G = NORAD 30799 = Themis booster
1 30799U 07004G   18107.49919926  .00000000  00000-0  00000-0 0  3540
2 30799 009.6233 097.3031 8552228 265.4254 353.6302 00.79502103    05

# Worst residual: 17.63 km
# MJD 58226.000000 (2018 Apr 18  0:00)
2007-004G = NORAD 30799 = Themis booster
1 30799U 07004G   18108.49919926  .00000000  00000-0  00000-0 0  3541
2 30799 009.6237 097.1707 8552239 265.6661 279.6928 00.79478634    05

# Worst residual: 9.93 km
# MJD 58227.000000 (2018 Apr 19  0:00)
2007-004G = NORAD 30799 = Themis booster
1 30799U 07004G   18109.49919926  .00000000  00000-0  00000-0 0  3542
2 30799 009.6244 097.0085 8554172 265.9397 205.7811 00.79489169    04
